ONEWEB-0456             
1 51646U 22012AA  23265.89234087  .00000224  00000+0  60563-3 0  9998
2 51646  87.8853 234.4984 0002258  76.2417 283.8962 13.10377611 78600
ONEWEB-0457             
1 51647U 22012AB  23265.86958094 -.00000616  00000+0 -18019-2 0  9992
2 51647  87.8848 234.5059 0001732  84.8383 275.2942 13.10370538 78606
ONEWEB-0458             
1 51648U 22012AC  23265.89071078  .00000131  00000+0  33818-3 0  9999
2 51648  87.8855 234.5144 0002161  88.0762 272.0612 13.10377516 78561
ONEWEB-0461             
1 51649U 22012AD  23266.12256164 -.00000014  00000+0 -69920-4 0  9994
2 51649  87.9349 204.1699 0001854  78.8384 281.2956 13.17646650 83748
ONEWEB-0463             
1 51650U 22012AE  23265.80194298  .00000053  00000+0  10353-3 0  9995
2 51650  87.9237 204.2849 0001812  78.6585 281.4750 13.17648596 82192
ONEWEB-0464             
1 51651U 22012AF  23265.88743968 -.00001802  00000+0 -51985-2 0  9998
2 51651  87.8856 234.5034 0002648  76.8605 283.2818 13.10382202 78587
ONEWEB-0468             
1 51652U 22012AG  23265.89395561  .00000308  00000+0  84683-3 0  9992
2 51652  87.8853 234.4954 0002063  84.7315 275.4048 13.10373632 78565
ONEWEB-0473             
1 51653U 22012AH  23265.87933222 -.00000368  00000+0 -10915-2 0  9997
2 51653  87.8854 234.5027 0002117  84.9293 275.2076 13.10372739 78562
